[{"OBJECT_NAME":"GHGSAT-C5","OBJECT_ID":"2022-057N","EPOCH":"2026-03-09T21:50:12.501024","MEAN_MOTION":15.32921902,"ECCENTRICITY":0.00082696,"INCLINATION":97.6522,"RA_OF_ASC_NODE":212.4963,"ARG_OF_PERICENTER":109.8004,"MEAN_ANOMALY":250.413,"EPHEMERIS_TYPE":0,"CLASSIFICATION_TYPE":"U","NORAD_CAT_ID":52744,"ELEMENT_SET_NO":999,"REV_AT_EPOCH":21032,"BSTAR":0.00029214604,"MEAN_MOTION_DOT":9.218e-5,"MEAN_MOTION_DDOT":0},{"OBJECT_NAME":"STARLINK-35923","OBJECT_ID":"2025-271AA","EPOCH":"2026-03-09T12:08:45.169440","MEAN_MOTION":15.30172911,"ECCENTRICITY":0.00011238,"INCLINATION":53.158,"RA_OF_ASC_NODE":141.1326,"ARG_OF_PERICENTER":81.8561,"MEAN_ANOMALY":278.2567,"EPHEMERIS_TYPE":0,"CLASSIFICATION_TYPE":"U","NORAD_CAT_ID":66641,"ELEMENT_SET_NO":999,"REV_AT_EPOCH":1753,"BSTAR":0.00028851192,"MEAN_MOTION_DOT":8.188e-5,"MEAN_MOTION_DDOT":0}]
